[
    {
        "Altitude(m)": 607910.9980877121,
        "Argument of Periapsis(deg)": 0.0,
        "Eccentricity": 0.0,
        "Inclination(deg)": 60.0,
        "Latitude(deg)": -14.2928824880343,
        "Longitude(deg)": 158.44262846938543,
        "Mean Anomaly(deg)": 196.36360000000002,
        "RAAN(deg)": 70.0,
        "Satellite Name": "Test1 320",
        "Satellite Number": 320,
        "Semi-Major Axis(m)": 6980739.136638005,
        "Time(s)": 0
    },
    {
        "Altitude(m)": 608060.2313792888,
        "Argument of Periapsis(deg)": 0.00010418945913296404,
        "Eccentricity": 0.0,
        "Inclination(deg)": 60.0,
        "Latitude(deg)": -14.82654427517076,
        "Longitude(deg)": 158.7312370848592,
        "Mean Anomaly(deg)": 196.98370614546178,
        "RAAN(deg)": 69.99957995086027,
        "Satellite Name": "Test1 320",
        "Satellite Number": 320,
        "Semi-Major Axis(m)": 6980739.136638005,
        "Time(s)": 10
    }
]